[{"OBJECT_NAME":"STARLINK-30494","OBJECT_ID":"2023-151G","EPOCH":"2026-03-09T08:39:06.366240","MEAN_MOTION":15.28417441,"ECCENTRICITY":0.00011553,"INCLINATION":43.0027,"RA_OF_ASC_NODE":192.4566,"ARG_OF_PERICENTER":241.5536,"MEAN_ANOMALY":118.52,"EPHEMERIS_TYPE":0,"CLASSIFICATION_TYPE":"U","NORAD_CAT_ID":57970,"ELEMENT_SET_NO":999,"REV_AT_EPOCH":13740,"BSTAR":-3.569111e-5,"MEAN_MOTION_DOT":-1.272e-5,"MEAN_MOTION_DDOT":0},{"OBJECT_NAME":"STARLINK-31993","OBJECT_ID":"2024-107S","EPOCH":"2026-03-09T06:44:36.926016","MEAN_MOTION":15.30197661,"ECCENTRICITY":0.00012122,"INCLINATION":53.161,"RA_OF_ASC_NODE":67.4421,"ARG_OF_PERICENTER":86.4352,"MEAN_ANOMALY":273.6787,"EPHEMERIS_TYPE":0,"CLASSIFICATION_TYPE":"U","NORAD_CAT_ID":59961,"ELEMENT_SET_NO":999,"REV_AT_EPOCH":9967,"BSTAR":2.1540336e-5,"MEAN_MOTION_DOT":2.79e-6,"MEAN_MOTION_DDOT":0}]
