STARLINK-30494          
1 57970U 23151G   26068.36049035 -.00001272  00000+0 -35691-4 0  9993
2 57970  43.0027 192.4566 0001155 241.5536 118.5200 15.28417441137406
STARLINK-31993          
1 59961U 24107S   26068.28098294  .00000279  00000+0  21540-4 0  9991
2 59961  53.1610  67.4421 0001212  86.4352 273.6787 15.30197661 99676
